STARLINK-1506           
1 45747U 20038T   26068.66028804  .00025380  00000+0  97997-3 0  9997
2 45747  53.0733 202.5028 0002514 227.7836 132.2949 15.26134655316688
STARLINK-30191          
1 57413U 23102K   26068.33620404 -.00002114  00000+0 -67356-4 0  9992
2 57413  43.0051 188.6450 0001359 246.2727 113.7982 15.27568618146916
